{
    "links": {
        "self": "http://www.neowsapp.com/rest/v1/neo/3780770?api_key=iIulBulltgU6a56xZRHN4H3l9WmuAYTsLGpBGhQ2"
    },
    "id": "3780770",
    "neo_reference_id": "3780770",
    "name": "(2017 QG2)",
    "designation": "2017 QG2",
    "nasa_jpl_url": "http://ssd.jpl.nasa.gov/sbdb.cgi?sstr=3780770",
    "absolute_magnitude_h": 27.6,
    "estimated_diameter": {
        "kilometers": {
            "estimated_diameter_min": 0.0080270317,
            "estimated_diameter_max": 0.0179489885
        },
        "meters": {
            "estimated_diameter_min": 8.0270316728,
            "estimated_diameter_max": 17.948988478
        },
        "miles": {
            "estimated_diameter_min": 0.0049877647,
            "estimated_diameter_max": 0.0111529809
        },
        "feet": {
            "estimated_diameter_min": 26.3354065935,
            "estimated_diameter_max": 58.8877593581
        }
    },
    "is_potentially_hazardous_asteroid": false,
    "close_approach_data": [
        {
            "close_approach_date": "2015-01-21",
            "close_approach_date_full": "2015-Jan-21 18:43",
            "epoch_date_close_approach": 1421865780000,
            "relative_velocity": {
                "kilometers_per_second": "9.609344232",
                "kilometers_per_hour": "34593.6392350832",
                "miles_per_hour": "21495.1421124882"
            },
            "miss_distance": {
                "astronomical": "0.0914403243",
                "lunar": "35.5702861527",
                "kilometers": "13679277.747389241",
                "miles": "8499909.0462078858"
            },
            "orbiting_body": "Mars"
        },
        {
            "close_approach_date": "2016-02-10",
            "close_approach_date_full": "2016-Feb-10 01:20",
            "epoch_date_close_approach": 1455067200000,
            "relative_velocity": {
                "kilometers_per_second": "6.3755985973",
                "kilometers_per_hour": "22952.1549503411",
                "miles_per_hour": "14261.5765023384"
            },
            "miss_distance": {
                "astronomical": "0.0593338357",
                "lunar": "23.0808620873",
                "kilometers": "8876215.439649959",
                "miles": "5515424.5205650742"
            },
            "orbiting_body": "Venus"
        },
        {
            "close_approach_date": "2017-08-08",
            "close_approach_date_full": "2017-Aug-08 16:20",
            "epoch_date_close_approach": 1502209200000,
            "relative_velocity": {
                "kilometers_per_second": "11.1591387034",
                "kilometers_per_hour": "40172.8993321576",
                "miles_per_hour": "24961.8773655842"
            },
            "miss_distance": {
                "astronomical": "0.0074161755",
                "lunar": "2.8848922695",
                "kilometers": "1109444.058346185",
                "miles": "689376.571039953"
            },
            "orbiting_body": "Earth"
        },
        {
            "close_approach_date": "2017-08-09",
            "close_approach_date_full": "2017-Aug-09 03:21",
            "epoch_date_close_approach": 1502248860000,
            "relative_velocity": {
                "kilometers_per_second": "11.4682859781",
                "kilometers_per_hour": "41285.8295212079",
                "miles_per_hour": "25653.4089044416"
            },
            "miss_distance": {
                "astronomical": "0.0068121074",
                "lunar": "2.6499097786",
                "kilometers": "1019076.757251238",
                "miles": "633224.9339255644"
            },
            "orbiting_body": "Moon"
        },
        {
            "close_approach_date": "2021-08-23",
            "close_approach_date_full": "2021-Aug-23 03:14",
            "epoch_date_close_approach": 1629688440000,
            "relative_velocity": {
                "kilometers_per_second": "19.0539708066",
                "kilometers_per_hour": "68594.2949036963",
                "miles_per_hour": "42621.8272972439"
            },
            "miss_distance": {
                "astronomical": "0.2650148878",
                "lunar": "103.0907913542",
                "kilometers": "39645662.733168986",
                "miles": "24634672.4974485668"
            },
            "orbiting_body": "Earth"
        }
    ],
    "orbital_data": {
        "orbit_id": "2",
        "orbit_determination_date": "2019-07-17 06:12:06",
        "first_observation_date": "2017-08-15",
        "last_observation_date": "2017-08-20",
        "data_arc_in_days": 5,
        "observations_used": 15,
        "orbit_uncertainty": "8",
        "minimum_orbit_intersection": ".00483719",
        "jupiter_tisserand_invariant": "5.160",
        "epoch_osculation": "2457983.5",
        "eccentricity": ".376662547412498",
        "semi_major_axis": "1.220279717252349",
        "inclination": "2.402510031310258",
        "ascending_node_longitude": "323.4284823907064",
        "orbital_period": "492.3653884917064",
        "perihelion_distance": ".7606460503962762",
        "perihelion_argument": "267.8869509801937",
        "aphelion_distance": "1.679913384108421",
        "perihelion_time": "2457913.916230983873",
        "mean_anomaly": "50.87716852426087",
        "mean_motion": ".7311643109252876",
        "equinox": "J2000",
        "orbit_class": {
            "orbit_class_type": "APO",
            "orbit_class_description": "Near-Earth asteroid orbits which cross the Earth’s orbit similar to that of 1862 Apollo",
            "orbit_class_range": "a (semi-major axis) > 1.0 AU; q (perihelion) < 1.017 AU"
        }
    },
    "is_sentry_object": false
}